GLOBALSTAR M045         
1 25676U 99019A   24182.88067174 -.00000072  00000+0  18665-3 0  9990
2 25676  51.9944 226.5509 0000589 228.2779 304.0224 12.27040345150265
GLOBALSTAR M044         
1 25678U 99019C   24182.92392950 -.00000058  00000+0  36216-3 0  9996
2 25678  51.9946 239.4963 0006367  85.2500  85.3871 11.90234361129499
GLOBALSTAR M042         
1 25679U 99019D   24182.88094236 -.00000046  00000+0  43688-3 0  9996
2 25679  52.0034 322.6854 0002120 294.2864 231.9516 12.22063831142300
GLOBALSTAR M025         
1 25770U 99031A   24182.95992817 -.00000064  00000+0  11300-3 0  9998
2 25770  51.9803 252.9136 0001503 261.8357 269.1660 11.22550872442269
GLOBALSTAR M049         
1 25771U 99031B   24182.91020542 -.00000130  00000+0 -22516-2 0  9997
2 25771  51.9874 270.1381 0003266 149.0465 211.0524 11.12107051 78342
GLOBALSTAR M047         
1 25772U 99031C   24182.77236900 -.00000065  00000+0  11847-3 0  9991
2 25772  51.9851 300.9928 0016046  21.4878 338.6599 11.31920771431319
